{
    "links": {
        "self": "http://www.neowsapp.com/rest/v1/neo/3943345?api_key=iIulBulltgU6a56xZRHN4H3l9WmuAYTsLGpBGhQ2"
    },
    "id": "3943345",
    "neo_reference_id": "3943345",
    "name": "(2019 YU1)",
    "designation": "2019 YU1",
    "nasa_jpl_url": "http://ssd.jpl.nasa.gov/sbdb.cgi?sstr=3943345",
    "absolute_magnitude_h": 24.3,
    "estimated_diameter": {
        "kilometers": {
            "estimated_diameter_min": 0.0366906138,
            "estimated_diameter_max": 0.0820427065
        },
        "meters": {
            "estimated_diameter_min": 36.6906137531,
            "estimated_diameter_max": 82.0427064882
        },
        "miles": {
            "estimated_diameter_min": 0.0227984834,
            "estimated_diameter_max": 0.0509789586
        },
        "feet": {
            "estimated_diameter_min": 120.3760332259,
            "estimated_diameter_max": 269.1689931548
        }
    },
    "is_potentially_hazardous_asteroid": false,
    "close_approach_data": [
        {
            "close_approach_date": "2019-12-20",
            "close_approach_date_full": "2019-Dec-20 10:06",
            "epoch_date_close_approach": 1576836360000,
            "relative_velocity": {
                "kilometers_per_second": "17.13697532",
                "kilometers_per_hour": "61693.1111518456",
                "miles_per_hour": "38333.700093212"
            },
            "miss_distance": {
                "astronomical": "0.0689703383",
                "lunar": "26.8294615987",
                "kilometers": "10317815.702859421",
                "miles": "6411193.3867691698"
            },
            "orbiting_body": "Earth"
        }
    ],
    "orbital_data": {
        "orbit_id": "3",
        "orbit_determination_date": "2019-12-23 07:58:12",
        "first_observation_date": "2019-12-20",
        "last_observation_date": "2019-12-23",
        "data_arc_in_days": 3,
        "observations_used": 32,
        "orbit_uncertainty": "8",
        "minimum_orbit_intersection": ".0484648",
        "jupiter_tisserand_invariant": "5.378",
        "epoch_osculation": "2458838.5",
        "eccentricity": ".2508864061404776",
        "semi_major_axis": "1.130150413898889",
        "inclination": "30.98652008070836",
        "ascending_node_longitude": "91.19465965545611",
        "orbital_period": "438.8365574707231",
        "perihelion_distance": ".8466110381576233",
        "perihelion_argument": "272.6484033392815",
        "aphelion_distance": "1.413689789640154",
        "perihelion_time": "2458767.240822438503",
        "mean_anomaly": "58.45753614966404",
        "mean_motion": ".8203509800434466",
        "equinox": "J2000",
        "orbit_class": {
            "orbit_class_type": "APO",
            "orbit_class_description": "Near-Earth asteroid orbits which cross the Earth’s orbit similar to that of 1862 Apollo",
            "orbit_class_range": "a (semi-major axis) > 1.0 AU; q (perihelion) < 1.017 AU"
        }
    },
    "is_sentry_object": false
}